{
  "type": "FeatureCollection",
  "features": [
    {
      "type": "Feature",
      "properties": {
        "norad_id": 33835,
        "name": "COSMOS 2251 DEB",
        "group": "cosmos-2251-debris",
        "lat": -70.0773930477659,
        "lon": 66.00623083090046,
        "alt_km": 705.4201825328055,
        "timestamp": "2025-12-03T20:47:58.618386+00:00",
        "meta_object_name": "COSMOS 2251 DEB",
        "meta_object_id": "1993-036CC",
        "meta_epoch": "2025-12-02T19:28:26.300928",
        "meta_mean_motion": 14.62061225,
        "meta_eccentricity": 0.00557211,
        "meta_inclination": 74.0555,
        "meta_ra_of_asc_node": 120.095,
        "meta_arg_of_pericenter": 176.3218,
        "meta_mean_anomaly": 313.2995,
        "meta_ephemeris_type": 0,
        "meta_classification_type": "U",
        "meta_norad_cat_id": 33835,
        "meta_element_set_no": 999,
        "meta_rev_at_epoch": 88644,
        "meta_bstar": 0.0016115926,
        "meta_mean_motion_dot": 8.252e-05,
        "meta_mean_motion_ddot": 0,
        "tle_line1": "1 33835U 93036CC  25336.81141552  .00008252  00000+0  16116-2 0  9992",
        "tle_line2": "2 33835  74.0555 120.0950 0055721 176.3218 313.2995 14.62061225886446"
      },
      "geometry": {
        "type": "Point",
        "coordinates": [
          66.00623083090046,
          -70.0773930477659
        ]
      }
    },
    {
      "type": "Feature",
      "properties": {
        "norad_id": 33836,
        "name": "COSMOS 2251 DEB",
        "group": "cosmos-2251-debris",
        "lat": 62.56290767500607,
        "lon": 62.897082314428054,
        "alt_km": 610.2710023544469,
        "timestamp": "2025-12-03T20:47:58.618397+00:00",
        "meta_object_name": "COSMOS 2251 DEB",
        "meta_object_id": "1993-036CD",
        "meta_epoch": "2025-12-03T06:13:05.961792",
        "meta_mean_motion": 14.79308618,
        "meta_eccentricity": 0.002242,
        "meta_inclination": 73.9973,
        "meta_ra_of_asc_node": 277.6529,
        "meta_arg_of_pericenter": 134.2793,
        "meta_mean_anomaly": 344.1464,
        "meta_ephemeris_type": 0,
        "meta_classification_type": "U",
        "meta_norad_cat_id": 33836,
        "meta_element_set_no": 999,
        "meta_rev_at_epoch": 63948,
        "meta_bstar": 0.0017963,
        "meta_mean_motion_dot": 0.00013419,
        "meta_mean_motion_ddot": 0,
        "tle_line1": "1 33836U 93036CD  25337.25909678  .00013419  00000+0  17963-2 0  9995",
        "tle_line2": "2 33836  73.9973 277.6529 0022420 134.2793 344.1464 14.79308618639483"
      },
      "geometry": {
        "type": "Point",
        "coordinates": [
          62.897082314428054,
          62.56290767500607
        ]
      }
    },
    {
      "type": "Feature",
      "properties": {
        "norad_id": 33837,
        "name": "COSMOS 2251 DEB",
        "group": "cosmos-2251-debris",
        "lat": -64.16317097178407,
        "lon": 35.99794436889615,
        "alt_km": 705.1004756772954,
        "timestamp": "2025-12-03T20:47:58.618408+00:00",
        "meta_object_name": "COSMOS 2251 DEB",
        "meta_object_id": "1993-036CE",
        "meta_epoch": "2025-12-03T07:52:36.048000",
        "meta_mean_motion": 14.50667168,
        "meta_eccentricity": 0.0035633,
        "meta_inclination": 74.0128,
        "meta_ra_of_asc_node": 73.3158,
        "meta_arg_of_pericenter": 296.5894,
        "meta_mean_anomaly": 63.1617,
        "meta_ephemeris_type": 0,
        "meta_classification_type": "U",
        "meta_norad_cat_id": 33837,
        "meta_element_set_no": 999,
        "meta_rev_at_epoch": 88659,
        "meta_bstar": 0.00042701,
        "meta_mean_motion_dot": 1.662e-05,
        "meta_mean_motion_ddot": 0,
        "tle_line1": "1 33837U 93036CE  25337.32819500  .00001662  00000+0  42701-3 0  9994",
        "tle_line2": "2 33837  74.0128  73.3158 0035633 296.5894  63.1617 14.50667168886592"
      },
      "geometry": {
        "type": "Point",
        "coordinates": [
          35.99794436889615,
          -64.16317097178407
        ]
      }
    },
    {
      "type": "Feature",
      "properties": {
        "norad_id": 33838,
        "name": "COSMOS 2251 DEB",
        "group": "cosmos-2251-debris",
        "lat": -54.44678680569523,
        "lon": 10.04148310828468,
        "alt_km": 725.7145518644074,
        "timestamp": "2025-12-03T20:47:58.618419+00:00",
        "meta_object_name": "COSMOS 2251 DEB",
        "meta_object_id": "1993-036CF",
        "meta_epoch": "2025-12-03T11:31:16.782240",
        "meta_mean_motion": 14.48318154,
        "meta_eccentricity": 0.002738,
        "meta_inclination": 74.0356,
        "meta_ra_of_asc_node": 167.1536,
        "meta_arg_of_pericenter": 290.2736,
        "meta_mean_anomaly": 92.8437,
        "meta_ephemeris_type": 0,
        "meta_classification_type": "U",
        "meta_norad_cat_id": 33838,
        "meta_element_set_no": 999,
        "meta_rev_at_epoch": 88435,
        "meta_bstar": 0.00053612,
        "meta_mean_motion_dot": 1.986e-05,
        "meta_mean_motion_ddot": 0,
        "tle_line1": "1 33838U 93036CF  25337.48005535  .00001986  00000+0  53612-3 0  9999",
        "tle_line2": "2 33838  74.0356 167.1536 0027380 290.2736  92.8437 14.48318154884350"
      },
      "geometry": {
        "type": "Point",
        "coordinates": [
          10.04148310828468,
          -54.44678680569523
        ]
      }
    },
    {
      "type": "Feature",
      "properties": {
        "norad_id": 33839,
        "name": "COSMOS 2251 DEB",
        "group": "cosmos-2251-debris",
        "lat": 11.927438579517425,
        "lon": -133.0054167267765,
        "alt_km": 630.757466189998,
        "timestamp": "2025-12-03T20:47:58.618429+00:00",
        "meta_object_name": "COSMOS 2251 DEB",
        "meta_object_id": "1993-036CG",
        "meta_epoch": "2025-12-03T03:25:22.042272",
        "meta_mean_motion": 14.64373974,
        "meta_eccentricity": 0.00848223,
        "meta_inclination": 74.0399,
        "meta_ra_of_asc_node": 224.9194,
        "meta_arg_of_pericenter": 339.2319,
        "meta_mean_anomaly": 177.3871,
        "meta_ephemeris_type": 0,
        "meta_classification_type": "U",
        "meta_norad_cat_id": 33839,
        "meta_element_set_no": 999,
        "meta_rev_at_epoch": 89439,
        "meta_bstar": 0.00040044968,
        "meta_mean_motion_dot": 2.197e-05,
        "meta_mean_motion_ddot": 0,
        "tle_line1": "1 33839U 93036CG  25337.14261623  .00002197  00000+0  40045-3 0  9996",
        "tle_line2": "2 33839  74.0399 224.9194 0084822 339.2319 177.3871 14.64373974894390"
      },
      "geometry": {
        "type": "Point",
        "coordinates": [
          -133.0054167267765,
          11.927438579517425
        ]
      }
    },
    {
      "type": "Feature",
      "properties": {
        "norad_id": 33841,
        "name": "COSMOS 2251 DEB",
        "group": "cosmos-2251-debris",
        "lat": -47.32604961286081,
        "lon": 132.46603890477192,
        "alt_km": 784.1501124422975,
        "timestamp": "2025-12-03T20:47:58.618440+00:00",
        "meta_object_name": "COSMOS 2251 DEB",
        "meta_object_id": "1993-036CJ",
        "meta_epoch": "2025-12-03T08:36:31.686048",
        "meta_mean_motion": 14.37836538,
        "meta_eccentricity": 0.0020111,
        "meta_inclination": 74.0373,
        "meta_ra_of_asc_node": 295.3137,
        "meta_arg_of_pericenter": 17.8924,
        "meta_mean_anomaly": 103.8361,
        "meta_ephemeris_type": 0,
        "meta_classification_type": "U",
        "meta_norad_cat_id": 33841,
        "meta_element_set_no": 999,
        "meta_rev_at_epoch": 87979,
        "meta_bstar": 0.00037499,
        "meta_mean_motion_dot": 1.107e-05,
        "meta_mean_motion_ddot": 0,
        "tle_line1": "1 33841U 93036CJ  25337.35870007  .00001107  00000+0  37499-3 0  9993",
        "tle_line2": "2 33841  74.0373 295.3137 0020111  17.8924 103.8361 14.37836538879791"
      },
      "geometry": {
        "type": "Point",
        "coordinates": [
          132.46603890477192,
          -47.32604961286081
        ]
      }
    },
    {
      "type": "Feature",
      "properties": {
        "norad_id": 33842,
        "name": "COSMOS 2251 DEB",
        "group": "cosmos-2251-debris",
        "lat": -28.582123649384748,
        "lon": -132.85285053591252,
        "alt_km": 722.8387819487989,
        "timestamp": "2025-12-03T20:47:58.618451+00:00",
        "meta_object_name": "COSMOS 2251 DEB",
        "meta_object_id": "1993-036CK",
        "meta_epoch": "2025-12-03T04:17:37.641696",
        "meta_mean_motion": 14.42662849,
        "meta_eccentricity": 0.00469726,
        "meta_inclination": 74.0334,
        "meta_ra_of_asc_node": 237.3968,
        "meta_arg_of_pericenter": 346.667,
        "meta_mean_anomaly": 13.3241,
        "meta_ephemeris_type": 0,
        "meta_classification_type": "U",
        "meta_norad_cat_id": 33842,
        "meta_element_set_no": 999,
        "meta_rev_at_epoch": 88199,
        "meta_bstar": 0.00044439316,
        "meta_mean_motion_dot": 1.471e-05,
        "meta_mean_motion_ddot": 0,
        "tle_line1": "1 33842U 93036CK  25337.17890789  .00001471  00000+0  44439-3 0  9999",
        "tle_line2": "2 33842  74.0334 237.3968 0046972 346.6670  13.3241 14.42662849881996"
      },
      "geometry": {
        "type": "Point",
        "coordinates": [
          -132.85285053591252,
          -28.582123649384748
        ]
      }
    }
  ]
}